{
  "type": "FeatureCollection",
  "features": [
    {
      "type": "Feature",
      "properties": {
        "norad_id": 41866,
        "name": "GOES 16",
        "group": "weather",
        "lat": -0.046178221839269916,
        "lon": 46.66568380195184,
        "alt_km": 35796.26072421718,
        "timestamp": "2025-12-24T03:53:29.285131+00:00",
        "meta_object_name": "GOES 16",
        "meta_object_id": "2016-071A",
        "meta_epoch": "2025-12-23T17:47:59.740224",
        "meta_mean_motion": 1.0027184,
        "meta_eccentricity": 0.0003131,
        "meta_inclination": 0.074,
        "meta_ra_of_asc_node": 102.3291,
        "meta_arg_of_pericenter": 164.0596,
        "meta_mean_anomaly": 348.4726,
        "meta_ephemeris_type": 0,
        "meta_classification_type": "U",
        "meta_norad_cat_id": 41866,
        "meta_element_set_no": 999,
        "meta_rev_at_epoch": 3334,
        "meta_bstar": 0,
        "meta_mean_motion_dot": -7e-07,
        "meta_mean_motion_ddot": 0,
        "tle_line1": "1 41866U 16071A   25357.74166366 -.00000070  00000+0  00000+0 0  9997",
        "tle_line2": "2 41866   0.0740 102.3291 0003131 164.0596 348.4726  1.00271840 33345"
      },
      "geometry": {
        "type": "Point",
        "coordinates": [
          46.66568380195184,
          -0.046178221839269916
        ]
      }
    },
    {
      "type": "Feature",
      "properties": {
        "norad_id": 41882,
        "name": "FENGYUN 4A",
        "group": "weather",
        "lat": -0.43447576865748616,
        "lon": -85.02089691253515,
        "alt_km": 35775.80933776322,
        "timestamp": "2025-12-24T03:53:29.285143+00:00",
        "meta_object_name": "FENGYUN 4A",
        "meta_object_id": "2016-077A",
        "meta_epoch": "2025-12-23T08:35:04.981056",
        "meta_mean_motion": 1.00264066,
        "meta_eccentricity": 0.0004569,
        "meta_inclination": 1.8742,
        "meta_ra_of_asc_node": 82.3014,
        "meta_arg_of_pericenter": 143.3346,
        "meta_mean_anomaly": 118.943,
        "meta_ephemeris_type": 0,
        "meta_classification_type": "U",
        "meta_norad_cat_id": 41882,
        "meta_element_set_no": 999,
        "meta_rev_at_epoch": 3316,
        "meta_bstar": 0,
        "meta_mean_motion_dot": -3.37e-06,
        "meta_mean_motion_ddot": 0,
        "tle_line1": "1 41882U 16077A   25357.35769654 -.00000337  00000+0  00000+0 0  9993",
        "tle_line2": "2 41882   1.8742  82.3014 0004569 143.3346 118.9430  1.00264066 33167"
      },
      "geometry": {
        "type": "Point",
        "coordinates": [
          -85.02089691253515,
          -0.43447576865748616
        ]
      }
    },
    {
      "type": "Feature",
      "properties": {
        "norad_id": 41884,
        "name": "CYGFM05",
        "group": "weather",
        "lat": 20.65065749593414,
        "lon": 5.139505401061239,
        "alt_km": 421.3610354652337,
        "timestamp": "2025-12-24T03:53:29.285155+00:00",
        "meta_object_name": "CYGFM05",
        "meta_object_id": "2016-078A",
        "meta_epoch": "2025-12-23T04:30:42.842304",
        "meta_mean_motion": 15.48011044,
        "meta_eccentricity": 0.00107446,
        "meta_inclination": 34.9607,
        "meta_ra_of_asc_node": 338.8623,
        "meta_arg_of_pericenter": 273.8559,
        "meta_mean_anomaly": 86.0935,
        "meta_ephemeris_type": 0,
        "meta_classification_type": "U",
        "meta_norad_cat_id": 41884,
        "meta_element_set_no": 999,
        "meta_rev_at_epoch": 50138,
        "meta_bstar": 0.00038374175,
        "meta_mean_motion_dot": 0.00020735,
        "meta_mean_motion_ddot": 0,
        "tle_line1": "1 41884U 16078A   25357.18799586  .00020735  00000+0  38374-3 0  9996",
        "tle_line2": "2 41884  34.9607 338.8623 0010744 273.8559  86.0935 15.48011044501380"
      },
      "geometry": {
        "type": "Point",
        "coordinates": [
          5.139505401061239,
          20.65065749593414
        ]
      }
    },
    {
      "type": "Feature",
      "properties": {
        "norad_id": 41885,
        "name": "CYGFM04",
        "group": "weather",
        "lat": 17.16598001312476,
        "lon": -26.795720094583007,
        "alt_km": 409.9872102440122,
        "timestamp": "2025-12-24T03:53:29.285166+00:00",
        "meta_object_name": "CYGFM04",
        "meta_object_id": "2016-078B",
        "meta_epoch": "2025-12-23T06:07:44.144256",
        "meta_mean_motion": 15.50793567,
        "meta_eccentricity": 0.00094497,
        "meta_inclination": 34.9357,
        "meta_ra_of_asc_node": 312.8922,
        "meta_arg_of_pericenter": 298.7341,
        "meta_mean_anomaly": 61.2431,
        "meta_ephemeris_type": 0,
        "meta_classification_type": "U",
        "meta_norad_cat_id": 41885,
        "meta_element_set_no": 999,
        "meta_rev_at_epoch": 50157,
        "meta_bstar": 0.00038886279,
        "meta_mean_motion_dot": 0.00023186,
        "meta_mean_motion_ddot": 0,
        "tle_line1": "1 41885U 16078B   25357.25537204  .00023186  00000+0  38886-3 0  9993",
        "tle_line2": "2 41885  34.9357 312.8922 0009449 298.7341  61.2431 15.50793567501579"
      },
      "geometry": {
        "type": "Point",
        "coordinates": [
          -26.795720094583007,
          17.16598001312476
        ]
      }
    },
    {
      "type": "Feature",
      "properties": {
        "norad_id": 41886,
        "name": "CYGFM02",
        "group": "weather",
        "lat": 34.09523636162764,
        "lon": 49.314352048819046,
        "alt_km": 410.5282955283992,
        "timestamp": "2025-12-24T03:53:29.285177+00:00",
        "meta_object_name": "CYGFM02",
        "meta_object_id": "2016-078C",
        "meta_epoch": "2025-12-23T13:33:48.926304",
        "meta_mean_motion": 15.52219956,
        "meta_eccentricity": 0.0011015,
        "meta_inclination": 34.9444,
        "meta_ra_of_asc_node": 309.0427,
        "meta_arg_of_pericenter": 302.4143,
        "meta_mean_anomaly": 57.5514,
        "meta_ephemeris_type": 0,
        "meta_classification_type": "U",
        "meta_norad_cat_id": 41886,
        "meta_element_set_no": 999,
        "meta_rev_at_epoch": 50175,
        "meta_bstar": 0.00039748,
        "meta_mean_motion_dot": 0.00024971,
        "meta_mean_motion_ddot": 0,
        "tle_line1": "1 41886U 16078C   25357.56514961  .00024971  00000+0  39748-3 0  9994",
        "tle_line2": "2 41886  34.9444 309.0427 0011015 302.4143  57.5514 15.52219956501757"
      },
      "geometry": {
        "type": "Point",
        "coordinates": [
          49.314352048819046,
          34.09523636162764
        ]
      }
    },
    {
      "type": "Feature",
      "properties": {
        "norad_id": 41887,
        "name": "CYGFM01",
        "group": "weather",
        "lat": 33.31463278892841,
        "lon": 84.49664478046904,
        "alt_km": 421.48348766819527,
        "timestamp": "2025-12-24T03:53:29.285188+00:00",
        "meta_object_name": "CYGFM01",
        "meta_object_id": "2016-078D",
        "meta_epoch": "2025-12-23T04:13:36.205536",
        "meta_mean_motion": 15.48600258,
        "meta_eccentricity": 0.00104718,
        "meta_inclination": 34.9437,
        "meta_ra_of_asc_node": 341.2155,
        "meta_arg_of_pericenter": 266.1968,
        "meta_mean_anomaly": 93.7556,
        "meta_ephemeris_type": 0,
        "meta_classification_type": "U",
        "meta_norad_cat_id": 41887,
        "meta_element_set_no": 999,
        "meta_rev_at_epoch": 50132,
        "meta_bstar": 0.00038375397,
        "meta_mean_motion_dot": 0.00021169,
        "meta_mean_motion_ddot": 0,
        "tle_line1": "1 41887U 16078D   25357.17611349  .00021169  00000+0  38375-3 0  9991",
        "tle_line2": "2 41887  34.9437 341.2155 0010471 266.1968  93.7556 15.48600258501327"
      },
      "geometry": {
        "type": "Point",
        "coordinates": [
          84.49664478046904,
          33.31463278892841
        ]
      }
    },
    {
      "type": "Feature",
      "properties": {
        "norad_id": 41888,
        "name": "CYGFM08",
        "group": "weather",
        "lat": -14.049370737020386,
        "lon": 158.61933749916668,
        "alt_km": 417.94996944827653,
        "timestamp": "2025-12-24T03:53:29.285199+00:00",
        "meta_object_name": "CYGFM08",
        "meta_object_id": "2016-078E",
        "meta_epoch": "2025-12-23T14:38:34.854432",
        "meta_mean_motion": 15.49854778,
        "meta_eccentricity": 0.0011741,
        "meta_inclination": 34.9467,
        "meta_ra_of_asc_node": 321.239,
        "meta_arg_of_pericenter": 292.4785,
        "meta_mean_anomaly": 67.4694,
        "meta_ephemeris_type": 0,
        "meta_classification_type": "U",
        "meta_norad_cat_id": 41888,
        "meta_element_set_no": 999,
        "meta_rev_at_epoch": 50162,
        "meta_bstar": 0.0003932,
        "meta_mean_motion_dot": 0.00022694,
        "meta_mean_motion_ddot": 0,
        "tle_line1": "1 41888U 16078E   25357.61012563  .00022694  00000+0  39320-3 0  9999",
        "tle_line2": "2 41888  34.9467 321.2390 0011741 292.4785  67.4694 15.49854778501623"
      },
      "geometry": {
        "type": "Point",
        "coordinates": [
          158.61933749916668,
          -14.049370737020386
        ]
      }
    }
  ]
}